{"type": "FeatureCollection", "features": [ {"type": "Feature", "properties": {"norad_id": 31313, "name": "FENGYUN 1C DEB", "group": "fengyun-1c-debris", "lat": 12.022825485070406, "lon": 65.61419579730416, "alt_km": 792.2462281240096, "timestamp": "2025-12-05T22:40:48.832171+00:00", "meta": {"OBJECT_NAME": "FENGYUN 1C DEB", "OBJECT_ID": "1999-025BPR", "EPOCH": "2025-12-05T05:00:28.756224", "MEAN_MOTION": 14.22258211, "ECCENTRICITY": 0.00441977, "INCLINATION": 99.0148, "RA_OF_ASC_NODE": 242.9241, "ARG_OF_PERICENTER": 202.9154, "MEAN_ANOMALY": 157.0051, "EPHEMERIS_TYPE": 0, "CLASSIFICATION_TYPE": "U", "NORAD_CAT_ID": 31313, "ELEMENT_SET_NO": 999, "REV_AT_EPOCH": 96955, "BSTAR": 0.00053562898, "MEAN_MOTION_DOT": 1.155e-05, "MEAN_MOTION_DDOT": 0}, "tle": {"line1": "1 31313U 99025BPR 25339.20866616  .00001155  00000+0  53563-3 0  9999", "line2": "2 31313  99.0148 242.9241 0044197 202.9154 157.0051 14.22258211969557"}}, "geometry": {"type": "Point", "coordinates": [65.61419579730416, 12.022825485070406]}}, {"type": "Feature", "properties": {"norad_id": 31314, "name": "FENGYUN 1C DEB", "group": "fengyun-1c-debris", "lat": -76.44321391698563, "lon": 14.237427687305548, "alt_km": 889.7618484238965, "timestamp": "2025-12-05T22:40:48.832181+00:00", "meta": {"OBJECT_NAME": "FENGYUN 1C DEB", "OBJECT_ID": "1999-025BPS", "EPOCH": "2025-12-04T06:02:04.117920", "MEAN_MOTION": 14.0491099, "ECCENTRICITY": 0.0079252, "INCLINATION": 98.8219, "RA_OF_ASC_NODE": 332.4967, "ARG_OF_PERICENTER": 21.1636, "MEAN_ANOMALY": 339.278, "EPHEMERIS_TYPE": 0, "CLASSIFICATION_TYPE": "U", "NORAD_CAT_ID": 31314, "ELEMENT_SET_NO": 999, "REV_AT_EPOCH": 60695, "BSTAR": 0.00048284, "MEAN_MOTION_DOT": 7.55e-06, "MEAN_MOTION_DDOT": 0}, "tle": {"line1": "1 31314U 99025BPS 25338.25143655  .00000755  00000+0  48284-3 0  9994", "line2": "2 31314  98.8219 332.4967 0079252  21.1636 339.2780 14.04910990606954"}}, "geometry": {"type": "Point", "coordinates": [14.237427687305548, -76.44321391698563]}}, {"type": "Feature", "properties": {"norad_id": 31319, "name": "FENGYUN 1C DEB", "group": "fengyun-1c-debris", "lat": 42.922132477256994, "lon": 67.56143773541204, "alt_km": 867.4204066370685, "timestamp": "2025-12-05T22:40:48.832191+00:00", "meta": {"OBJECT_NAME": "FENGYUN 1C DEB", "OBJECT_ID": "1999-025BPX", "EPOCH": "2025-12-04T11:59:12.130080", "MEAN_MOTION": 13.75824314, "ECCENTRICITY": 0.0170553, "INCLINATION": 98.8308, "RA_OF_ASC_NODE": 237.9087, "ARG_OF_PERICENTER": 108.8006, "MEAN_ANOMALY": 70.5718, "EPHEMERIS_TYPE": 0, "CLASSIFICATION_TYPE": "U", "NORAD_CAT_ID": 31319, "ELEMENT_SET_NO": 999, "REV_AT_EPOCH": 93574, "BSTAR": 0.000307, "MEAN_MOTION_DOT": 2.92e-06, "MEAN_MOTION_DDOT": 0}, "tle": {"line1": "1 31319U 99025BPX 25338.49944595  .00000292  00000+0  30700-3 0  9997", "line2": "2 31319  98.8308 237.9087 0170553 108.8006  70.5718 13.75824314935749"}}, "geometry": {"type": "Point", "coordinates": [67.56143773541204, 42.922132477256994]}}, {"type": "Feature", "properties": {"norad_id": 31321, "name": "FENGYUN 1C DEB", "group": "fengyun-1c-debris", "lat": -38.8742975397692, "lon": -128.14861880253565, "alt_km": 833.070195297486, "timestamp": "2025-12-05T22:40:48.832201+00:00", "meta": {"OBJECT_NAME": "FENGYUN 1C DEB", "OBJECT_ID": "1999-025BPZ", "EPOCH": "2025-11-28T23:11:37.489632", "MEAN_MOTION": 14.13809948, "ECCENTRICITY": 0.00293651, "INCLINATION": 98.7348, "RA_OF_ASC_NODE": 52.1537, "ARG_OF_PERICENTER": 217.1862, "MEAN_ANOMALY": 142.7277, "EPHEMERIS_TYPE": 0, "CLASSIFICATION_TYPE": "U", "NORAD_CAT_ID": 31321, "ELEMENT_SET_NO": 999, "REV_AT_EPOCH": 57189, "BSTAR": 0.00017233355, "MEAN_MOTION_DOT": 2.84e-06, "MEAN_MOTION_DDOT": 0}, "tle": {"line1": "1 31321U 99025BPZ 25332.96640613  .00000284  00000+0  17233-3 0  9997", "line2": "2 31321  98.7348  52.1537 0029365 217.1862 142.7277 14.13809948571893"}}, "geometry": {"type": "Point", "coordinates": [-128.14861880253565, -38.8742975397692]}}, {"type": "Feature", "properties": {"norad_id": 31322, "name": "FENGYUN 1C DEB", "group": "fengyun-1c-debris", "lat": 5.417526949598316, "lon": -134.75750459050417, "alt_km": 1135.6400956002344, "timestamp": "2025-12-05T22:40:48.832212+00:00", "meta": {"OBJECT_NAME": "FENGYUN 1C DEB", "OBJECT_ID": "1999-025BQA", "EPOCH": "2025-12-02T09:57:05.346144", "MEAN_MOTION": 13.72990391, "ECCENTRICITY": 0.0239007, "INCLINATION": 98.5749, "RA_OF_ASC_NODE": 41.2566, "ARG_OF_PERICENTER": 37.8458, "MEAN_ANOMALY": 334.6813, "EPHEMERIS_TYPE": 0, "CLASSIFICATION_TYPE": "U", "NORAD_CAT_ID": 31322, "ELEMENT_SET_NO": 999, "REV_AT_EPOCH": 62134, "BSTAR": 0.00025402374, "MEAN_MOTION_DOT": 2.51e-06, "MEAN_MOTION_DDOT": 0}, "tle": {"line1": "1 31322U 99025BQA 25336.41464521  .00000251  00000+0  25402-3 0  9995", "line2": "2 31322  98.5749  41.2566 0239007  37.8458 334.6813 13.72990391621343"}}, "geometry": {"type": "Point", "coordinates": [-134.75750459050417, 5.417526949598316]}}, {"type": "Feature", "properties": {"norad_id": 31323, "name": "FENGYUN 1C DEB", "group": "fengyun-1c-debris", "lat": -16.652389715030164, "lon": -164.95552718980906, "alt_km": 807.9461565766987, "timestamp": "2025-12-05T22:40:48.832222+00:00", "meta": {"OBJECT_NAME": "FENGYUN 1C DEB", "OBJECT_ID": "1999-025BQB", "EPOCH": "2025-12-02T07:58:19.286688", "MEAN_MOTION": 14.274728, "ECCENTRICITY": 0.00318958, "INCLINATION": 99.422, "RA_OF_ASC_NODE": 14.0004, "ARG_OF_PERICENTER": 109.182, "MEAN_ANOMALY": 251.2815, "EPHEMERIS_TYPE": 0, "CLASSIFICATION_TYPE": "U", "NORAD_CAT_ID": 31323, "ELEMENT_SET_NO": 999, "REV_AT_EPOCH": 63832, "BSTAR": 0.0018110627, "MEAN_MOTION_DOT": 4.423e-05, "MEAN_MOTION_DDOT": 0}, "tle": {"line1": "1 31323U 99025BQB 25336.33216767  .00004423  00000+0  18111-2 0  9997", "line2": "2 31323  99.4220  14.0004 0031895 109.1820 251.2815 14.27472800638327"}}, "geometry": {"type": "Point", "coordinates": [-164.95552718980906, -16.652389715030164]}}, {"type": "Feature", "properties": {"norad_id": 31324, "name": "FENGYUN 1C DEB", "group": "fengyun-1c-debris", "lat": -76.24377642480293, "lon": 40.25258556086794, "alt_km": 834.8384773386433, "timestamp": "2025-12-05T22:40:48.832232+00:00", "meta": {"OBJECT_NAME": "FENGYUN 1C DEB", "OBJECT_ID": "1999-025BQC", "EPOCH": "2025-12-04T01:19:10.557120", "MEAN_MOTION": 14.1468472, "ECCENTRICITY": 0.00496418, "INCLINATION": 99.1223, "RA_OF_ASC_NODE": 259.3417, "ARG_OF_PERICENTER": 329.0254, "MEAN_ANOMALY": 30.7993, "EPHEMERIS_TYPE": 0, "CLASSIFICATION_TYPE": "U", "NORAD_CAT_ID": 31324, "ELEMENT_SET_NO": 999, "REV_AT_EPOCH": 96363, "BSTAR": 0.00033792063, "MEAN_MOTION_DOT": 6.11e-06, "MEAN_MOTION_DDOT": 0}, "tle": {"line1": "1 31324U 99025BQC 25338.05498330  .00000611  00000+0  33792-3 0  9995", "line2": "2 31324  99.1223 259.3417 0049641 329.0254  30.7993 14.14684720963636"}}, "geometry": {"type": "Point", "coordinates": [40.25258556086794, -76.24377642480293]}}, {"type": "Feature", "properties": {"norad_id": 31325, "name": "FENGYUN 1C DEB", "group": "fengyun-1c-debris", "lat": 60.48256037172878, "lon": -89.73435183620428, "alt_km": 856.397426946769, "timestamp": "2025-12-05T22:40:48.832242+00:00", "meta": {"OBJECT_NAME": "FENGYUN 1C DEB", "OBJECT_ID": "1999-025BQD", "EPOCH": "2025-11-24T23:23:39.646752", "MEAN_MOTION": 14.16672096, "ECCENTRICITY": 0.00707168, "INCLINATION": 98.9917, "RA_OF_ASC_NODE": 62.9425, "ARG_OF_PERICENTER": 270.4358, "MEAN_ANOMALY": 88.8713, "EPHEMERIS_TYPE": 0, "CLASSIFICATION_TYPE": "U", "NORAD_CAT_ID": 31325, "ELEMENT_SET_NO": 999, "REV_AT_EPOCH": 59526, "BSTAR": 0.0025582335, "MEAN_MOTION_DOT": 5.193e-05, "MEAN_MOTION_DDOT": 0}, "tle": {"line1": "1 31325U 99025BQD 25328.97476443  .00005193  00000+0  25582-2 0  9994", "line2": "2 31325  98.9917  62.9425 0070716 270.4358  88.8713 14.16672096595261"}}, "geometry": {"type": "Point", "coordinates": [-89.73435183620428, 60.48256037172878]}}, {"type": "Feature", "properties": {"norad_id": 31326, "name": "FENGYUN 1C DEB", "group": "fengyun-1c-debris", "lat": -41.59102808966568, "lon": 32.778452612617585, "alt_km": 581.9440182846429, "timestamp": "2025-12-05T22:40:48.832252+00:00", "meta": {"OBJECT_NAME": "FENGYUN 1C DEB", "OBJECT_ID": "1999-025BQE", "EPOCH": "2025-11-25T14:42:32.298048", "MEAN_MOTION": 14.96360134, "ECCENTRICITY": 0.00187059, "INCLINATION": 99.013, "RA_OF_ASC_NODE": 208.9742, "ARG_OF_PERICENTER": 1.9794, "MEAN_ANOMALY": 358.1494, "EPHEMERIS_TYPE": 0, "CLASSIFICATION_TYPE": "U", "NORAD_CAT_ID": 31326, "ELEMENT_SET_NO": 999, "REV_AT_EPOCH": 73489, "BSTAR": 0.0084230344, "MEAN_MOTION_DOT": 0.00096893, "MEAN_MOTION_DDOT": 0}, "tle": {"line1": "1 31326U 99025BQE 25329.61287382  .00096893  00000+0  84230-2 0  9991", "line2": "2 31326  99.0130 208.9742 0018705   1.9794 358.1494 14.96360134734894"}}, "geometry": {"type": "Point", "coordinates": [32.778452612617585, -41.59102808966568]}}, {"type": "Feature", "properties": {"norad_id": 31327, "name": "FENGYUN 1C DEB", "group": "fengyun-1c-debris", "lat": 71.44827772295156, "lon": -171.71615799535022, "alt_km": 511.64979367784963, "timestamp": "2025-12-05T22:40:48.832262+00:00", "meta": {"OBJECT_NAME": "FENGYUN 1C DEB", "OBJECT_ID": "1999-025BQF", "EPOCH": "2025-12-02T05:09:54.181152", "MEAN_MOTION": 15.09995749, "ECCENTRICITY": 0.0089281, "INCLINATION": 98.9847, "RA_OF_ASC_NODE": 335.7853, "ARG_OF_PERICENTER": 44.0162, "MEAN_ANOMALY": 316.8127, "EPHEMERIS_TYPE": 0, "CLASSIFICATION_TYPE": "U", "NORAD_CAT_ID": 31327, "ELEMENT_SET_NO": 999, "REV_AT_EPOCH": 99941, "BSTAR": 0.0018104, "MEAN_MOTION_DOT": 0.00032362, "MEAN_MOTION_DDOT": 0}, "tle": {"line1": "1 31327U 99025BQF 25336.21521043  .00032362  00000+0  18104-2 0  9999", "line2": "2 31327  98.9847 335.7853 0089281  44.0162 316.8127 15.09995749999410"}}, "geometry": {"type": "Point", "coordinates": [-171.71615799535022, 71.44827772295156]}}]}